NORAD_CAT_ID,OBJECT_NAME,OBJECT_TYPE,EPOCH,MEAN_MOTION,ECCENTRICITY,INCLINATION,RA_OF_ASC_NODE,ARG_OF_PERICENTER,MEAN_ANOMALY,BSTAR,MEAN_MOTION_DOT,MEAN_MOTION_DDOT,TLE_LINE0,TLE_LINE1,TLE_LINE2,SEMIMAJOR_AXIS,PERIOD,APOGEE,PERIGEE,DECAYED
55917.0,STARLINK-5855,PAYLOAD,2023-12-23 14:57:32,15.03428966,0.0002668,69.9987,177.8733,288.4474,71.6397,0.00044481,5.973e-05,0.0,0 STARLINK-5855,1 55917U 23037D   23357.62329118  .00005973  00000-0  44481-3 0  9992,2 55917  69.9987 177.8733 0002668 288.4474  71.6397 15.03428966 42634,6934.469,95.781,558.184,554.484,0.0
55917.0,STARLINK-5855,PAYLOAD,2023-12-23 21:20:46,15.03432239,0.0002629,69.9986,177.1968,287.7889,72.2985,0.00045104,6.059e-05,0.0,0 STARLINK-5855,1 55917U 23037D   23357.88942544  .00006059  00000-0  45104-3 0  9993,2 55917  69.9986 177.1968 0002629 287.7889  72.2985 15.03432239 42677,6934.459,95.781,558.147,554.501,0.0
55917.0,STARLINK-5855,PAYLOAD,2023-12-23 22:56:34,15.03432767,0.0002661,69.9985,177.0278,288.9136,71.1737,0.00044156,5.93e-05,0.0,0 STARLINK-5855,1 55917U 23037D   23357.95595908  .00005930  00000-0  44156-3 0  9992,2 55917  69.9985 177.0278 0002661 288.9136  71.1737 15.03432767 43022,6934.458,95.781,558.168,554.477,0.0
55917.0,STARLINK-5855,PAYLOAD,2023-12-24 14:54:39,15.0344116,0.0002688,69.9983,175.3367,289.297,70.7901,0.00046085,6.194e-05,0.0,0 STARLINK-5855,1 55917U 23037D   23358.62129187  .00006194  00000-0  46085-3 0  9995,2 55917  69.9983 175.3367 0002688 289.2970  70.7901 15.03441160 42786,6934.432,95.78,558.161,554.433,0.0
55917.0,STARLINK-5855,PAYLOAD,2023-12-24 21:17:53,15.03443729,0.0002701,69.9983,174.6604,289.4008,70.6862,0.00044461,5.973e-05,0.0,0 STARLINK-5855,1 55917U 23037D   23358.88742430  .00005973  00000-0  44461-3 0  9995,2 55917  69.9983 174.6604 0002701 289.4008  70.6862 15.03443729 42825,6934.424,95.78,558.162,554.416,0.0
55917.0,STARLINK-5855,PAYLOAD,2023-12-25 11:40:09,15.03450994,0.0002742,69.9982,173.1387,289.6229,70.4636,0.00044017,5.913e-05,0.0,0 STARLINK-5855,1 55917U 23037D   23359.48621944  .00005913  00000-0  44017-3 0  9999,2 55917  69.9982 173.1387 0002742 289.6229  70.4636 15.03450994 43255,6934.402,95.78,558.168,554.365,0.0
55917.0,STARLINK-5855,PAYLOAD,2023-12-25 14:51:46,15.034531,0.0002739,69.9982,172.8005,288.9375,71.1489,0.00045155,6.069e-05,0.0,0 STARLINK-5855,1 55917U 23037D   23359.61928442  .00006069  00000-0  45155-3 0  9994,2 55917  69.9982 172.8005 0002739 288.9375  71.1489 15.03453100 42938,6934.395,95.78,558.159,554.361,0.0
55917.0,STARLINK-5855,PAYLOAD,2023-12-25 21:14:59,15.03455713,0.0002743,69.9983,172.1242,288.4955,71.5908,0.00042919,5.764e-05,0.0,0 STARLINK-5855,1 55917U 23037D   23359.88541448  .00005764  00000-0  42919-3 0  9996,2 55917  69.9983 172.1242 0002743 288.4955  71.5908 15.03455713 42975,6934.387,95.779,558.154,554.35,0.0
55917.0,STARLINK-5855,PAYLOAD,2023-12-26 14:48:51,15.0346637,0.0002793,69.9984,170.264,288.7648,71.321,0.00047966,6.456e-05,0.0,0 STARLINK-5855,1 55917U 23037D   23360.61726847  .00006456  00000-0  47966-3 0  9993,2 55917  69.9984 170.2640 0002793 288.7648  71.3210 15.03466370 43082,6934.354,95.779,558.156,554.283,0.0
55917.0,STARLINK-5855,PAYLOAD,2023-12-26 19:36:17,15.03468898,0.0002798,69.9985,169.7568,288.6098,71.4759,0.00048104,6.475e-05,0.0,0 STARLINK-5855,1 55917U 23037D   23360.81686434  .00006475  00000-0  48104-3 0  9998,2 55917  69.9985 169.7568 0002798 288.6098  71.4759 15.03468898 43455,6934.347,95.779,558.152,554.271,0.0
55917.0,STARLINK-5855,PAYLOAD,2023-12-26 21:12:05,15.03468935,0.0002813,69.9985,169.5876,288.8608,71.2248,0.00045011,6.052e-05,0.0,0 STARLINK-5855,1 55917U 23037D   23360.88339630  .00006052  00000-0  45011-3 0  9993,2 55917  69.9985 169.5876 0002813 288.8608  71.2248 15.03468935 43129,6934.346,95.779,558.162,554.261,0.0
55917.0,STARLINK-5855,PAYLOAD,2023-12-27 14:45:57,15.03479807,0.000288,69.9986,167.7277,288.7605,71.3244,0.00050022,6.74e-05,0.0,0 STARLINK-5855,1 55917U 23037D   23361.61524384  .00006740  00000-0  50022-3 0  9999,2 55917  69.9986 167.7277 0002880 288.7605  71.3244 15.03479807 43234,6934.313,95.778,558.175,554.181,0.0
55917.0,STARLINK-5855,PAYLOAD,2023-12-27 21:09:10,15.03482483,0.0002907,69.9987,167.0511,289.1568,70.9278,0.00046098,6.203e-05,0.0,0 STARLINK-5855,1 55917U 23037D   23361.88136903  .00006203  00000-0  46098-3 0  9996,2 55917  69.9987 167.0511 0002907 289.1568  70.9278 15.03482483 43272,6934.305,95.778,558.186,554.154,0.0
55917.0,STARLINK-5855,PAYLOAD,2023-12-28 14:43:01,15.03493618,0.0003027,69.9988,165.191,291.5527,68.5312,0.00049278,6.64e-05,0.0,0 STARLINK-5855,1 55917U 23037D   23362.61320968  .00006640  00000-0  49278-3 0  9992,2 55917  69.9988 165.1910 0003027 291.5527  68.5312 15.03493618 43387,6934.271,95.777,558.235,554.037,0.0
55917.0,STARLINK-5855,PAYLOAD,2023-12-28 21:06:14,15.03505014,0.0002862,69.9993,164.5154,289.028,71.0571,0.00071031,9.622e-05,0.0,0 STARLINK-5855,1 55917U 23037D   23362.87932949  .00009622  00000-0  71031-3 0  9993,2 55917  69.9993 164.5154 0002862 289.0280  71.0571 15.03505014 43425,6934.236,95.776,558.085,554.116,0.0
55917.0,STARLINK-5855,PAYLOAD,2023-12-29 14:40:03,15.03530261,0.0003011,69.9995,162.6542,293.5523,66.5322,0.00096733,0.00013154,0.0,0 STARLINK-5855,1 55917U 23037D   23363.61115495  .00013154  00000-0  96733-3 0  9996,2 55917  69.9995 162.6542 0003011 293.5523  66.5322 15.03530261 43531,6934.158,95.775,558.111,553.935,0.0
55917.0,STARLINK-5855,PAYLOAD,2023-12-29 21:03:16,15.03531218,0.0003084,69.9994,161.978,293.4103,66.6734,0.00067316,9.119e-05,0.0,0 STARLINK-5855,1 55917U 23037D   23363.87727233  .00009119  00000-0  67316-3 0  9994,2 55917  69.9994 161.9780 0003084 293.4103  66.6734 15.03531218 43574,6934.155,95.775,558.158,553.881,0.0
55917.0,STARLINK-5855,PAYLOAD,2023-12-30 11:25:29,15.0354296,0.0003133,69.9994,160.4563,292.201,67.8819,0.00070256,9.525e-05,0.0,0 STARLINK-5855,1 55917U 23037D   23364.47603161  .00009525  00000-0  70256-3 0  9992,2 55917  69.9994 160.4563 0003133 292.2010  67.8819 15.03542960 44008,6934.119,95.774,558.156,553.811,0.0
55917.0,STARLINK-5855,PAYLOAD,2023-12-30 14:37:05,15.03544845,0.0003127,69.9994,160.1181,291.9942,68.0888,0.00068061,9.225e-05,0.0,0 STARLINK-5855,1 55917U 23037D   23364.60908878  .00009225  00000-0  68061-3 0  9998,2 55917  69.9994 160.1181 0003127 291.9942  68.0888 15.03544845 43680,6934.113,95.774,558.146,553.81,0.0
55917.0,STARLINK-5855,PAYLOAD,2023-12-30 21:00:17,15.03549234,0.0003128,69.9994,159.4415,292.2158,67.8672,0.00064584,8.749e-05,0.0,0 STARLINK-5855,1 55917U 23037D   23364.87520249  .00008749  00000-0  64584-3 0  9995,2 55917  69.9994 159.4415 0003128 292.2158  67.8672 15.03549234 43725,6934.1,95.773,558.134,553.796,0.0
55917.0,STARLINK-5855,PAYLOAD,2023-12-31 19:21:29,15.03564115,0.0003152,69.9995,157.0737,293.7964,66.2867,0.00062439,8.458e-05,0.0,0 STARLINK-5855,1 55917U 23037D   23365.80659479  .00008458  00000-0  62439-3 0  9991,2 55917  69.9995 157.0737 0003152 293.7964  66.2867 15.03564115 44203,6934.054,95.772,558.104,553.733,0.0
55917.0,STARLINK-5855,PAYLOAD,2024-01-01 14:31:05,15.03580296,0.0003153,69.9995,155.0444,292.7086,67.3742,0.00069436,9.422e-05,0.0,0 STARLINK-5855,1 55917U 23037D   24001.60492171  .00009422  00000-0  69436-3 0  9997,2 55917  69.9995 155.0444 0003153 292.7086  67.3742 15.03580296 43987,6934.004,95.771,558.055,553.683,0.0
55917.0,STARLINK-5855,PAYLOAD,2024-01-01 19:18:29,15.03583811,0.0003169,69.9996,154.5371,293.2513,66.8315,0.00069846,9.479e-05,0.0,0 STARLINK-5855,1 55917U 23037D   24001.80450254  .00009479  00000-0  69846-3 0  9992,2 55917  69.9996 154.5371 0003169 293.2513  66.8315 15.03583811 44010,6933.993,95.771,558.056,553.661,0.0
55917.0,STARLINK-5855,PAYLOAD,2024-01-02 11:16:27,15.03602999,0.000331,69.9996,152.846,294.6156,65.4661,0.00092718,0.00012628,0.0,0 STARLINK-5855,1 55917U 23037D   24002.46976545  .00012628  00000-0  92718-3 0  9995,2 55917  69.9996 152.8460 0003310 294.6156  65.4661 15.03602999 44452,6933.934,95.77,558.094,553.504,0.0
55917.0,STARLINK-5855,PAYLOAD,2024-01-02 14:28:03,15.03603793,0.0003325,69.9995,152.5078,294.3479,65.7336,0.00080919,0.00011006,0.0,0 STARLINK-5855,1 55917U 23037D   24002.60281753  .00011006  00000-0  80919-3 0  9990,2 55917  69.9995 152.5078 0003325 294.3479  65.7336 15.03603793 44134,6933.932,95.77,558.102,553.491,0.0
55917.0,STARLINK-5855,PAYLOAD,2024-01-02 19:15:26,15.03609436,0.0003314,69.9995,152.0003,293.9111,66.1704,0.00084728,0.00011531,0.0,0 STARLINK-5855,1 55917U 23037D   24002.80239464  .00011531  00000-0  84728-3 0  9999,2 55917  69.9995 152.0003 0003314 293.9111  66.1704 15.03609436 44160,6933.914,95.77,558.077,553.482,0.0
55917.0,STARLINK-5855,PAYLOAD,2024-01-03 14:25:00,15.0362688,0.0003445,69.9992,149.9705,293.7165,66.3635,0.00076882,0.00010458,0.0,0 STARLINK-5855,1 55917U 23037D   24003.60069707  .00010458  00000-0  76882-3 0  9998,2 55917  69.9992 149.9705 0003445 293.7165  66.3635 15.03626880 44283,6933.861,95.768,558.115,553.337,0.0
55917.0,STARLINK-5855,PAYLOAD,2024-01-03 19:12:23,15.03633546,0.000344,69.9992,149.4632,293.7329,66.3472,0.00084433,0.00011498,0.0,0 STARLINK-5855,1 55917U 23037D   24003.80027076  .00011498  00000-0  84433-3 0  9999,2 55917  69.9992 149.4632 0003440 293.7329  66.3472 15.03633546 44651,6933.84,95.768,558.091,553.32,0.0
55917.0,STARLINK-5855,PAYLOAD,2024-01-04 14:21:55,15.03654729,0.0003431,69.9991,147.4335,292.3831,67.6967,0.00091658,0.00012499,0.0,0 STARLINK-5855,1 55917U 23037D   24004.59855949  .00012499  00000-0  91658-3 0  9993,2 55917  69.9991 147.4335 0003431 292.3831  67.6967 15.03654729 44436,6933.775,95.767,558.019,553.261,0.0
55917.0,STARLINK-5855,PAYLOAD,2024-01-04 19:09:18,15.03659391,0.0003512,69.999,146.9258,293.1653,66.9138,0.00088116,0.00012013,0.0,0 STARLINK-5855,1 55917U 23037D   24004.79813021  .00012013  00000-0  88116-3 0  9997,2 55917  69.9990 146.9258 0003512 293.1653  66.9138 15.03659391 44469,6933.761,95.766,558.061,553.191,0.0
